1 20253U 89077A   26149.45852265 -.00000367  00000-0  00000-0 0  9999
2 20253  12.4267 351.2787 0005826  30.9744 155.2883  1.00263731260370
1 20776U 90079A   26149.22635106  .00000126  00000-0  00000-0 0  9993
2 20776  13.3455 349.9479 0002851  72.4028 299.3069  1.00268111130708
1 22787U 93056A   26149.22548439  .00000126  00000-0  00000-0 0  9997
2 22787  11.9089   3.6484 0006813   2.6020 350.3861  1.00267693118357
1 23467U 95003A   26149.48872983 -.00000019  00000-0  00000-0 0  9991
2 23467   9.7006  13.2954 0003030  45.8601 176.0550  1.00269492114766
1 23967U 96042A   26149.31156807 -.00000280  00000-0  00000-0 0  9992
2 23967  11.0991  17.1879 0005581 103.8998 196.9472  1.00220559109293
1 25544U 98067A   26149.55005846  .00013186  00000-0  24294-3 0  9998
2 25544  51.6335  32.3640 0007320 111.3639 248.8131 15.49470900568868
1 25967U 99063A   26148.03031041 -.00000187  00000-0  00000-0 0  9996
2 25967   9.8454  27.3167 0001990  21.3947 184.7861  1.00274654 97147
1 27168U 02001A   26149.29472141  .00000028  00000-0  00000-0 0  9999
2 27168  11.1578  22.0257 0100019   7.8408 341.9819  1.00270967 32760
1 27607U 02058C   26149.47628087  .00001157  00000-0  15354-3 0  9996
2 27607  64.5509 186.8750 0075571 265.8982  93.3484 14.83001684261682
1 28117U 03057A   26148.73570427 -.00000101  00000-0  00000-0 0  9993
2 28117   8.9398  33.9265 0002388  29.9646 162.7334  1.00273249 82254
1 28899U 05044A   26149.52836582 -.00000252  00000-0  00000-0 0  9990
2 28899   5.0725  43.7326 0003260  24.2134 152.8181  1.00272040 75339
1 30794U 07007B   26149.30997481 -.00000263  00000-0  00000-0 0  9992
2 30794   5.2539  73.9652 0004000   1.2481  18.4573  1.00271332 70511
1 32294U 07056B   26149.50993465  .00000149  00000-0  00000-0 0  9995
2 32294   5.2063  73.7223 0003776 349.4049  32.5675  1.00271078 68017
1 35943U 09054B   26149.51747469  .00000036  00000-0  00000-0 0  9996
2 35943   0.0426  69.1689 0003158 359.5359  67.6609  1.00270064 61127
1 36582U 10021B   26149.57892817  .00000100  00000-0  00000-0 0  9998
2 36582   0.0568 103.4435 0003126 338.9415  26.2990  1.00273971 58775
1 38098U 12011A   26149.51929470  .00000000  00000-0  00000-0 0  9992
2 38098   0.0277  36.1744 0002154  44.9630  64.9397  1.00270643  7007
1 39034U 12075A   26149.44413593  .00000110  00000-0  00000-0 0  9991
2 39034   0.0681 341.7130 0004053  96.2735  21.6817  1.00274895 48978
1 39215U 13038A   26149.50993465  .00000143  00000-0  00000-0 0  9996
2 39215   2.9975   1.5248 0002069  66.9835  26.9883  1.00277175 43832
1 40296U 14069A   26148.74259647  .00000261  00000-0  00000-0 0  9995
2 40296  63.4432 217.2405 6655189 270.6925  19.6242  2.00590974 84841
1 40931U 15052B   25151.18580175  .00001241  00000-0  78118-4 0  9996
2 40931   6.0006  24.0987 0012733 338.8432  21.1169 14.78805930523159
1 43678U 18084H   26149.63010464  .00003760  00000-0  30438-3 0  9992
2 43678  98.1143 345.0374 0011740 232.9104 127.1046 15.00353654413434
1 43700U 18090A   26148.51188273  .00000154  00000-0  00000-0 0  9998
2 43700   0.0155 298.2229 0001907 160.0872 357.8371  1.00274787 27483
1 43803U 18099AX  26148.45249797  .00021394  00000-0  67363-3 0  9990
2 43803  97.4144 211.2270 0004799 356.8750   3.2461 15.32936130410607
1 44453U 19046A   26147.28124635 -.00000061  00000-0  00000-0 0  9999
2 44453  63.1109  53.4539 7070438 274.8061  14.7673  2.00603622 49921
1 44909U 19096E   26149.55431666  .00000037  00000-0  10248-3 0  9997
2 44909  82.5222 352.0893 0217319 187.6760 172.0998 12.79748499299968
1 45254U 20015A   26149.52413197 -.00000174  00000-0  00000-0 0  9995
2 45254  65.4859 320.9626 6863433 278.2299  15.0535  2.00602036 45916
1 52145U 22030A   26148.53029014  .00000210  00000-0  00000-0 0  9992
2 52145  62.6767 142.9016 6778661 272.8721  17.6779  2.00615636 30634
1 57167U 23091B   26010.59363612  .08733485  25619-5  12458-2 0  9993
2 57167  97.4978  91.1570 0009532 282.8011  77.2220 16.34765267141469
1 59112U 24043Q   26149.38395000  .00045786  00000-0  62823-3 0  9995
2 59112  97.5509 298.6503 0006031 263.0916  96.9652 15.57197917124966
1 67291U 25313AV  26149.19843939  .00018873  00000-0  74066-3 0  9990
2 67291  97.3944 224.6131 0010112  68.4953 291.7362 15.25727657 23093
1 26635U 00080A   21013.46269075 0.00000000  00000-0  00000-0 0    09
2 26635   9.2857  29.8038 0014383 186.3086 173.6859  1.00273100    09
1 34810U 09020A   26118.58802400 0.00000000  00000-0  00000-0 0    05
2 34810   3.0809  80.0043 0003222 250.4250 109.5484  1.00270000    01
1 40614U 15022B   25359.93496764 0.00000000  00000-0  00000-0 0    00
2 40614   0.0160 108.2839 0003453 352.8976   7.0980  1.00270000    04
